HULIANWANG DIGUI 13B    
1 66413U 25258B   25325.02339472 -.00000157  00000+0  10697-5 0  9990
2 66413  50.0044 353.4201 0013436 281.8628  78.0778 14.23475986  1563
HULIANWANG DIGUI 13C    
1 66414U 25258C   25323.82802245 -.00000092  00000+0  28683-4 0  9991
2 66414  50.0085 358.4424 0013391 277.0637  82.8754 14.25515031  1394
HULIANWANG DIGUI 13D    
1 66415U 25258D   25324.94873824 -.00000159  00000+0  67469-6 0  9998
2 66415  50.0049 353.7004 0013072 287.8381  72.1107 14.25899495  1559
HULIANWANG DIGUI 13E    
1 66416U 25258E   25323.96672887 -.00000114  00000+0  19442-4 0  9993
2 66416  50.0058 357.8428 0012374 282.4671  77.4858 14.25961121  1414
HULIANWANG DIGUI 13F    
1 66417U 25258F   25323.82620674 -.00000103  00000+0  23720-4 0  9998
2 66417  50.0021 358.4189 0012382 283.8909  76.0628 14.26074605  1394
HULIANWANG DIGUI 13G    
1 66418U 25258G   25325.01741478 -.00000166  00000+0 -25224-5 0  9990
2 66418  50.0018 353.3846 0012073 282.0842  77.8719 14.26083363  1569
HULIANWANG DIGUI 13H    
1 66419U 25258H   25325.01623513 -.00000169  00000+0 -35383-5 0  9990
2 66419  50.0014 353.3763 0011489 284.9430  75.0212 14.26239559  1566
HULIANWANG DIGUI 13J    
1 66420U 25258J   25325.01540647 -.00000169  00000+0 -36827-5 0  9992
2 66420  50.0039 353.3787 0010991 289.0184  70.9539 14.26345585  1552
CZ-12 R/B               
1 66421U 25258K   25325.03393728 -.00000086  00000+0  24992-4 0  9997
2 66421  49.9958 352.1358 0064631 171.4236 188.7804 14.42310820  1581
STARLINK-35617          
1 66422U 25259A   25325.00002315 -.01287637  00000+0 -58879-2 0  9995
2 66422  42.9984 176.4480 0001851 278.5019  85.5133 15.85420192  2784
STARLINK-35618          
1 66423U 25259B   25325.00002315 -.01289854  00000+0 -58896-2 0  9998
2 66423  42.9985 176.4439 0001876 279.0617  86.7046 15.85453874  2786
STARLINK-35588          
1 66424U 25259C   25325.00002315 -.01291446  00000+0 -58913-2 0  9999
2 66424  42.9986 176.4394 0001883 276.4707  91.3014 15.85476431  2788
