CCSDS_OMM_VERS = 2.0
CREATION_DATE  = 
ORIGINATOR     = 

OBJECT_NAME    = HULIANWANG DIGUI 13B
OBJECT_ID      = 2025-258B
CENTER_NAME    = EARTH
REF_FRAME      = TEME
TIME_SYSTEM    = UTC
MEAN_ELEMENT_THEORY = SGP/SGP4

EPOCH          = 2025-11-21T00:33:41.303808
MEAN_MOTION    = 14.23475986
ECCENTRICITY   = .00134362
INCLINATION    = 50.0044
RA_OF_ASC_NODE = 353.4201
ARG_OF_PERICENTER = 281.8628
MEAN_ANOMALY   = 78.0778

EPHEMERIS_TYPE = 0
CLASSIFICATION_TYPE = U
NORAD_CAT_ID   = 66413
ELEMENT_SET_NO = 999
REV_AT_EPOCH   = 156
BSTAR          = .1069691E-5
MEAN_MOTION_DOT = -.157E-5
MEAN_MOTION_DDOT = 0

CCSDS_OMM_VERS = 2.0
CREATION_DATE  = 
ORIGINATOR     = 

OBJECT_NAME    = HULIANWANG DIGUI 13C
OBJECT_ID      = 2025-258C
CENTER_NAME    = EARTH
REF_FRAME      = TEME
TIME_SYSTEM    = UTC
MEAN_ELEMENT_THEORY = SGP/SGP4

EPOCH          = 2025-11-19T19:52:21.139680
MEAN_MOTION    = 14.25515031
ECCENTRICITY   = .00133918
INCLINATION    = 50.0085
RA_OF_ASC_NODE = 358.4424
ARG_OF_PERICENTER = 277.0637
MEAN_ANOMALY   = 82.8754

EPHEMERIS_TYPE = 0
CLASSIFICATION_TYPE = U
NORAD_CAT_ID   = 66414
ELEMENT_SET_NO = 999
REV_AT_EPOCH   = 139
BSTAR          = .28683165E-4
MEAN_MOTION_DOT = -.92E-6
MEAN_MOTION_DDOT = 0

CCSDS_OMM_VERS = 2.0
CREATION_DATE  = 
ORIGINATOR     = 

OBJECT_NAME    = HULIANWANG DIGUI 13D
OBJECT_ID      = 2025-258D
CENTER_NAME    = EARTH
REF_FRAME      = TEME
TIME_SYSTEM    = UTC
MEAN_ELEMENT_THEORY = SGP/SGP4

EPOCH          = 2025-11-20T22:46:10.983936
MEAN_MOTION    = 14.25899495
ECCENTRICITY   = .00130726
INCLINATION    = 50.0049
RA_OF_ASC_NODE = 353.7004
ARG_OF_PERICENTER = 287.8381
MEAN_ANOMALY   = 72.1107

EPHEMERIS_TYPE = 0
CLASSIFICATION_TYPE = U
NORAD_CAT_ID   = 66415
ELEMENT_SET_NO = 999
REV_AT_EPOCH   = 155
BSTAR          = .674693E-6
MEAN_MOTION_DOT = -.159E-5
MEAN_MOTION_DDOT = 0

CCSDS_OMM_VERS = 2.0
CREATION_DATE  = 
ORIGINATOR     = 

OBJECT_NAME    = HULIANWANG DIGUI 13E
OBJECT_ID      = 2025-258E
CENTER_NAME    = EARTH
REF_FRAME      = TEME
TIME_SYSTEM    = UTC
MEAN_ELEMENT_THEORY = SGP/SGP4

EPOCH          = 2025-11-19T23:12:05.374368
MEAN_MOTION    = 14.25961121
ECCENTRICITY   = .00123741
INCLINATION    = 50.0058
RA_OF_ASC_NODE = 357.8428
ARG_OF_PERICENTER = 282.4671
MEAN_ANOMALY   = 77.4858

EPHEMERIS_TYPE = 0
CLASSIFICATION_TYPE = U
NORAD_CAT_ID   = 66416
ELEMENT_SET_NO = 999
REV_AT_EPOCH   = 141
BSTAR          = .19441609E-4
MEAN_MOTION_DOT = -.114E-5
MEAN_MOTION_DDOT = 0

CCSDS_OMM_VERS = 2.0
CREATION_DATE  = 
ORIGINATOR     = 

OBJECT_NAME    = HULIANWANG DIGUI 13F
OBJECT_ID      = 2025-258F
CENTER_NAME    = EARTH
REF_FRAME      = TEME
TIME_SYSTEM    = UTC
MEAN_ELEMENT_THEORY = SGP/SGP4

EPOCH          = 2025-11-19T19:49:44.262336
MEAN_MOTION    = 14.26074605
ECCENTRICITY   = .00123821
INCLINATION    = 50.0021
RA_OF_ASC_NODE = 358.4189
ARG_OF_PERICENTER = 283.8909
MEAN_ANOMALY   = 76.0628

EPHEMERIS_TYPE = 0
CLASSIFICATION_TYPE = U
NORAD_CAT_ID   = 66417
ELEMENT_SET_NO = 999
REV_AT_EPOCH   = 139
BSTAR          = .23719985E-4
MEAN_MOTION_DOT = -.103E-5
MEAN_MOTION_DDOT = 0

CCSDS_OMM_VERS = 2.0
CREATION_DATE  = 
ORIGINATOR     = 

OBJECT_NAME    = HULIANWANG DIGUI 13G
OBJECT_ID      = 2025-258G
CENTER_NAME    = EARTH
REF_FRAME      = TEME
TIME_SYSTEM    = UTC
MEAN_ELEMENT_THEORY = SGP/SGP4

EPOCH          = 2025-11-21T00:25:04.636992
MEAN_MOTION    = 14.26083363
ECCENTRICITY   = .00120731
INCLINATION    = 50.0018
RA_OF_ASC_NODE = 353.3846
ARG_OF_PERICENTER = 282.0842
MEAN_ANOMALY   = 77.8719

EPHEMERIS_TYPE = 0
CLASSIFICATION_TYPE = U
NORAD_CAT_ID   = 66418
ELEMENT_SET_NO = 999
REV_AT_EPOCH   = 156
BSTAR          = -.2522383E-5
MEAN_MOTION_DOT = -.166E-5
MEAN_MOTION_DDOT = 0

CCSDS_OMM_VERS = 2.0
CREATION_DATE  = 
ORIGINATOR     = 

OBJECT_NAME    = HULIANWANG DIGUI 13H
OBJECT_ID      = 2025-258H
CENTER_NAME    = EARTH
REF_FRAME      = TEME
TIME_SYSTEM    = UTC
MEAN_ELEMENT_THEORY = SGP/SGP4

EPOCH          = 2025-11-21T00:23:22.715232
MEAN_MOTION    = 14.26239559
ECCENTRICITY   = .00114895
INCLINATION    = 50.0014
RA_OF_ASC_NODE = 353.3763
ARG_OF_PERICENTER = 284.9430
MEAN_ANOMALY   = 75.0212

EPHEMERIS_TYPE = 0
CLASSIFICATION_TYPE = U
NORAD_CAT_ID   = 66419
ELEMENT_SET_NO = 999
REV_AT_EPOCH   = 156
BSTAR          = -.353826E-5
MEAN_MOTION_DOT = -.169E-5
MEAN_MOTION_DDOT = 0

CCSDS_OMM_VERS = 2.0
CREATION_DATE  = 
ORIGINATOR     = 

OBJECT_NAME    = HULIANWANG DIGUI 13J
OBJECT_ID      = 2025-258J
CENTER_NAME    = EARTH
REF_FRAME      = TEME
TIME_SYSTEM    = UTC
MEAN_ELEMENT_THEORY = SGP/SGP4

EPOCH          = 2025-11-21T00:22:11.119008
MEAN_MOTION    = 14.26345585
ECCENTRICITY   = .00109917
INCLINATION    = 50.0039
RA_OF_ASC_NODE = 353.3787
ARG_OF_PERICENTER = 289.0184
MEAN_ANOMALY   = 70.9539

EPHEMERIS_TYPE = 0
CLASSIFICATION_TYPE = U
NORAD_CAT_ID   = 66420
ELEMENT_SET_NO = 999
REV_AT_EPOCH   = 155
BSTAR          = -.3682671E-5
MEAN_MOTION_DOT = -.169E-5
MEAN_MOTION_DDOT = 0

CCSDS_OMM_VERS = 2.0
CREATION_DATE  = 
ORIGINATOR     = 

OBJECT_NAME    = CZ-12 R/B
OBJECT_ID      = 2025-258K
CENTER_NAME    = EARTH
REF_FRAME      = TEME
TIME_SYSTEM    = UTC
MEAN_ELEMENT_THEORY = SGP/SGP4

EPOCH          = 2025-11-21T00:48:52.180992
MEAN_MOTION    = 14.42310820
ECCENTRICITY   = .00646319
INCLINATION    = 49.9958
RA_OF_ASC_NODE = 352.1358
ARG_OF_PERICENTER = 171.4236
MEAN_ANOMALY   = 188.7804

EPHEMERIS_TYPE = 0
CLASSIFICATION_TYPE = U
NORAD_CAT_ID   = 66421
ELEMENT_SET_NO = 999
REV_AT_EPOCH   = 158
BSTAR          = .24991521E-4
MEAN_MOTION_DOT = -.86E-6
MEAN_MOTION_DDOT = 0

CCSDS_OMM_VERS = 2.0
CREATION_DATE  = 
ORIGINATOR     = 

OBJECT_NAME    = STARLINK-35617
OBJECT_ID      = 2025-259A
CENTER_NAME    = EARTH
REF_FRAME      = TEME
TIME_SYSTEM    = UTC
MEAN_ELEMENT_THEORY = SGP/SGP4

EPOCH          = 2025-11-21T00:00:02.000160
MEAN_MOTION    = 15.85420192
ECCENTRICITY   = .00018517
INCLINATION    = 42.9984
RA_OF_ASC_NODE = 176.4480
ARG_OF_PERICENTER = 278.5019
MEAN_ANOMALY   = 85.5133

EPHEMERIS_TYPE = 0
CLASSIFICATION_TYPE = U
NORAD_CAT_ID   = 66422
ELEMENT_SET_NO = 999
REV_AT_EPOCH   = 278
BSTAR          = -.58879099E-2
MEAN_MOTION_DOT = -.1287637E-1
MEAN_MOTION_DDOT = 0

CCSDS_OMM_VERS = 2.0
CREATION_DATE  = 
ORIGINATOR     = 

OBJECT_NAME    = STARLINK-35618
OBJECT_ID      = 2025-259B
CENTER_NAME    = EARTH
REF_FRAME      = TEME
TIME_SYSTEM    = UTC
MEAN_ELEMENT_THEORY = SGP/SGP4

EPOCH          = 2025-11-21T00:00:02.000160
MEAN_MOTION    = 15.85453874
ECCENTRICITY   = .0001876
INCLINATION    = 42.9985
RA_OF_ASC_NODE = 176.4439
ARG_OF_PERICENTER = 279.0617
MEAN_ANOMALY   = 86.7046

EPHEMERIS_TYPE = 0
CLASSIFICATION_TYPE = U
NORAD_CAT_ID   = 66423
ELEMENT_SET_NO = 999
REV_AT_EPOCH   = 278
BSTAR          = -.58895834E-2
MEAN_MOTION_DOT = -.1289854E-1
MEAN_MOTION_DDOT = 0

CCSDS_OMM_VERS = 2.0
CREATION_DATE  = 
ORIGINATOR     = 

OBJECT_NAME    = STARLINK-35588
OBJECT_ID      = 2025-259C
CENTER_NAME    = EARTH
REF_FRAME      = TEME
TIME_SYSTEM    = UTC
MEAN_ELEMENT_THEORY = SGP/SGP4

EPOCH          = 2025-11-21T00:00:02.000160
MEAN_MOTION    = 15.85476431
ECCENTRICITY   = .00018833
INCLINATION    = 42.9986
RA_OF_ASC_NODE = 176.4394
ARG_OF_PERICENTER = 276.4707
MEAN_ANOMALY   = 91.3014

EPHEMERIS_TYPE = 0
CLASSIFICATION_TYPE = U
NORAD_CAT_ID   = 66424
ELEMENT_SET_NO = 999
REV_AT_EPOCH   = 278
BSTAR          = -.58912749E-2
MEAN_MOTION_DOT = -.1291446E-1
MEAN_MOTION_DDOT = 0

